IRIDIUM 171             
1 43929U 19002H   24239.36044966  .00000534  00000+0  18343-3 0  9990
2 43929  86.3925 269.5320 0002139  99.0019 261.1419 14.34218939294386
IRIDIUM 170             
1 43930U 19002J   24239.33459587  .00001877  00000+0  29380-3 0  9992
2 43930  86.6046 269.3503 0002567  91.2796 268.8715 14.72253371302178
IRIDIUM 181             
1 56726U 23068S   24239.53273487  .00000945  00000+0  27348-3 0  9998
2 56726  86.8671 326.4139 0001844  93.2881 266.8532 14.43582625 67285
IRIDIUM 177             
1 56727U 23068T   24239.53089230  .00002789  00000+0  36361-3 0  9993
2 56727  86.1938 281.9601 0002076  91.0807 269.0652 14.80223118 68780
IRIDIUM 174             
1 56728U 23068U   24239.52546018  .00002758  00000+0  35946-3 0  9999
2 56728  86.1945 282.0720 0001791  92.6867 267.4559 14.80226906 68785
IRIDIUM 178             
1 56729U 23068V   24239.45244458  .00002873  00000+0  37472-3 0  9999
2 56729  86.5772 302.9110 0002020 100.2064 259.9386 14.80230417 68779
IRIDIUM 179             
1 56730U 23068W   24239.44689475  .00003526  00000+0  46133-3 0  9992
2 56730  86.6793 307.9348 0002224  81.9804 278.1670 14.80156274 68773
